{
    "links": {
        "self": "http://www.neowsapp.com/rest/v1/neo/3780803?api_key=iIulBulltgU6a56xZRHN4H3l9WmuAYTsLGpBGhQ2"
    },
    "id": "3780803",
    "neo_reference_id": "3780803",
    "name": "(2017 QQ16)",
    "designation": "2017 QQ16",
    "nasa_jpl_url": "http://ssd.jpl.nasa.gov/sbdb.cgi?sstr=3780803",
    "absolute_magnitude_h": 26.9,
    "estimated_diameter": {
        "kilometers": {
            "estimated_diameter_min": 0.0110803882,
            "estimated_diameter_max": 0.0247765013
        },
        "meters": {
            "estimated_diameter_min": 11.0803882126,
            "estimated_diameter_max": 24.7765012606
        },
        "miles": {
            "estimated_diameter_min": 0.0068850319,
            "estimated_diameter_max": 0.0153953994
        },
        "feet": {
            "estimated_diameter_min": 36.3529808636,
            "estimated_diameter_max": 81.2877363957
        }
    },
    "is_potentially_hazardous_asteroid": false,
    "close_approach_data": [
        {
            "close_approach_date": "2017-08-13",
            "close_approach_date_full": "2017-Aug-13 04:19",
            "epoch_date_close_approach": 1502597940000,
            "relative_velocity": {
                "kilometers_per_second": "12.4228180816",
                "kilometers_per_hour": "44722.1450935854",
                "miles_per_hour": "27788.6017666226"
            },
            "miss_distance": {
                "astronomical": "0.0140336859",
                "lunar": "5.4591038151",
                "kilometers": "2099409.518889033",
                "miles": "1304512.5839853354"
            },
            "orbiting_body": "Earth"
        },
        {
            "close_approach_date": "2094-09-05",
            "close_approach_date_full": "2094-Sep-05 06:33",
            "epoch_date_close_approach": 3934506780000,
            "relative_velocity": {
                "kilometers_per_second": "21.9534147365",
                "kilometers_per_hour": "79032.2930515595",
                "miles_per_hour": "49107.5934241759"
            },
            "miss_distance": {
                "astronomical": "0.3284667005",
                "lunar": "127.7735464945",
                "kilometers": "49137918.760727935",
                "miles": "30532886.889138103"
            },
            "orbiting_body": "Earth"
        }
    ],
    "orbital_data": {
        "orbit_id": "2",
        "orbit_determination_date": "2017-08-24 06:19:15",
        "first_observation_date": "2017-08-18",
        "last_observation_date": "2017-08-23",
        "data_arc_in_days": 5,
        "observations_used": 13,
        "orbit_uncertainty": "8",
        "minimum_orbit_intersection": ".0137761",
        "jupiter_tisserand_invariant": "3.896",
        "epoch_osculation": "2457984.5",
        "eccentricity": ".5165815477447653",
        "semi_major_axis": "1.797070500205415",
        "inclination": "6.001839377928118",
        "ascending_node_longitude": "327.75073076",
        "orbital_period": "879.9258968838482",
        "perihelion_distance": ".868737039802842",
        "perihelion_argument": "297.7543449659932",
        "aphelion_distance": "2.725403960607987",
        "perihelion_time": "2457937.772791587222",
        "mean_anomaly": "19.11728599893746",
        "mean_motion": ".4091253607546917",
        "equinox": "J2000",
        "orbit_class": {
            "orbit_class_type": "APO",
            "orbit_class_description": "Near-Earth asteroid orbits which cross the Earth’s orbit similar to that of 1862 Apollo",
            "orbit_class_range": "a (semi-major axis) > 1.0 AU; q (perihelion) < 1.017 AU"
        }
    },
    "is_sentry_object": false
}